[{"OBJECT_NAME":"NINGXIA-1 9","OBJECT_ID":"2021-064D","EPOCH":"2026-03-09T22:22:33.329280","MEAN_MOTION":14.08541534,"ECCENTRICITY":0.00078366,"INCLINATION":45.0035,"RA_OF_ASC_NODE":315.3923,"ARG_OF_PERICENTER":140.8679,"MEAN_ANOMALY":219.2725,"EPHEMERIS_TYPE":0,"CLASSIFICATION_TYPE":"U","NORAD_CAT_ID":49021,"ELEMENT_SET_NO":999,"REV_AT_EPOCH":24023,"BSTAR":1.224568e-5,"MEAN_MOTION_DOT":-1.11e-6,"MEAN_MOTION_DDOT":0},{"OBJECT_NAME":"FENGYUN 1C DEB","OBJECT_ID":"1999-025DPJ","EPOCH":"2026-03-09T01:29:09.054240","MEAN_MOTION":13.3486322,"ECCENTRICITY":0.03796464,"INCLINATION":100.081,"RA_OF_ASC_NODE":117.0897,"ARG_OF_PERICENTER":161.9758,"MEAN_ANOMALY":199.5259,"EPHEMERIS_TYPE":0,"CLASSIFICATION_TYPE":"U","NORAD_CAT_ID":35202,"ELEMENT_SET_NO":999,"REV_AT_EPOCH":58128,"BSTAR":0.0011341359,"MEAN_MOTION_DOT":8.16e-6,"MEAN_MOTION_DDOT":0}]
